[{"OBJECT_NAME":"STARLINK-34212","OBJECT_ID":"2025-111S","EPOCH":"2026-03-09T09:59:43.798560","MEAN_MOTION":15.27588915,"ECCENTRICITY":0.00017882,"INCLINATION":43.0059,"RA_OF_ASC_NODE":79.2366,"ARG_OF_PERICENTER":282.8716,"MEAN_ANOMALY":77.1936,"EPHEMERIS_TYPE":0,"CLASSIFICATION_TYPE":"U","NORAD_CAT_ID":64139,"ELEMENT_SET_NO":999,"REV_AT_EPOCH":4542,"BSTAR":0.0010101297,"MEAN_MOTION_DOT":0.00027646,"MEAN_MOTION_DDOT":0},{"OBJECT_NAME":"CZ-6A DEB","OBJECT_ID":"2022-151DV","EPOCH":"2026-03-09T19:16:59.107296","MEAN_MOTION":15.22406517,"ECCENTRICITY":0.00445255,"INCLINATION":98.4509,"RA_OF_ASC_NODE":160.1888,"ARG_OF_PERICENTER":355.6495,"MEAN_ANOMALY":4.4345,"EPHEMERIS_TYPE":0,"CLASSIFICATION_TYPE":"U","NORAD_CAT_ID":54397,"ELEMENT_SET_NO":999,"REV_AT_EPOCH":17880,"BSTAR":0.0035436228,"MEAN_MOTION_DOT":0.00084931,"MEAN_MOTION_DDOT":0}]
